{
  "type": "FeatureCollection",
  "features": [
    {
      "type": "Feature",
      "properties": {
        "norad_id": 34079,
        "name": "IRIDIUM 33 DEB",
        "group": "iridium-33-debris",
        "lat": -62.48249335210713,
        "lon": -161.95940323558114,
        "alt_km": 629.5941428618717,
        "timestamp": "2025-12-07T11:27:50.391235+00:00",
        "meta_object_name": "IRIDIUM 33 DEB",
        "meta_object_id": "1997-051CN",
        "meta_epoch": "2025-12-06T20:36:57.983616",
        "meta_mean_motion": 14.83301604,
        "meta_eccentricity": 0.00063125,
        "meta_inclination": 86.377,
        "meta_ra_of_asc_node": 11.336,
        "meta_arg_of_pericenter": 26.7021,
        "meta_mean_anomaly": 154.5513,
        "meta_ephemeris_type": 0,
        "meta_classification_type": "U",
        "meta_norad_cat_id": 34079,
        "meta_element_set_no": 999,
        "meta_rev_at_epoch": 88890,
        "meta_bstar": 0.0028333793,
        "meta_mean_motion_dot": 0.00023271,
        "meta_mean_motion_ddot": 0,
        "tle_line1": "1 34079U 97051CN  25340.85900444  .00023271  00000+0  28334-2 0  9999",
        "tle_line2": "2 34079  86.3770  11.3360 0006312  26.7021 154.5513 14.83301604888907"
      },
      "geometry": {
        "type": "Point",
        "coordinates": [
          -161.95940323558114,
          -62.48249335210713
        ]
      }
    },
    {
      "type": "Feature",
      "properties": {
        "norad_id": 34088,
        "name": "IRIDIUM 33 DEB",
        "group": "iridium-33-debris",
        "lat": -7.188778374520437,
        "lon": -146.40167311421834,
        "alt_km": 595.1952457217058,
        "timestamp": "2025-12-07T11:27:50.391259+00:00",
        "meta_object_name": "IRIDIUM 33 DEB",
        "meta_object_id": "1997-051CX",
        "meta_epoch": "2025-12-06T22:31:14.068992",
        "meta_mean_motion": 14.90964191,
        "meta_eccentricity": 0.00052577,
        "meta_inclination": 86.3849,
        "meta_ra_of_asc_node": 33.389,
        "meta_arg_of_pericenter": 198.2241,
        "meta_mean_anomaly": 336.0244,
        "meta_ephemeris_type": 0,
        "meta_classification_type": "U",
        "meta_norad_cat_id": 34088,
        "meta_element_set_no": 999,
        "meta_rev_at_epoch": 88655,
        "meta_bstar": 0.0039064328,
        "meta_mean_motion_dot": 0.00038774,
        "meta_mean_motion_ddot": 0,
        "tle_line1": "1 34088U 97051CX  25340.93835728  .00038774  00000+0  39064-2 0  9996",
        "tle_line2": "2 34088  86.3849  33.3890 0005257 198.2241 336.0244 14.90964191886553"
      },
      "geometry": {
        "type": "Point",
        "coordinates": [
          -146.40167311421834,
          -7.188778374520437
        ]
      }
    },
    {
      "type": "Feature",
      "properties": {
        "norad_id": 34091,
        "name": "IRIDIUM 33 DEB",
        "group": "iridium-33-debris",
        "lat": -15.49128363251837,
        "lon": -109.74023423678534,
        "alt_km": 640.7096071680007,
        "timestamp": "2025-12-07T11:27:50.391272+00:00",
        "meta_object_name": "IRIDIUM 33 DEB",
        "meta_object_id": "1997-051DA",
        "meta_epoch": "2025-12-06T16:44:46.781088",
        "meta_mean_motion": 14.81124325,
        "meta_eccentricity": 0.00331132,
        "meta_inclination": 86.3424,
        "meta_ra_of_asc_node": 69.6006,
        "meta_arg_of_pericenter": 314.9331,
        "meta_mean_anomaly": 44.9204,
        "meta_ephemeris_type": 0,
        "meta_classification_type": "U",
        "meta_norad_cat_id": 34091,
        "meta_element_set_no": 999,
        "meta_rev_at_epoch": 87777,
        "meta_bstar": 0.0087798064,
        "meta_mean_motion_dot": 0.00069464,
        "meta_mean_motion_ddot": 0,
        "tle_line1": "1 34091U 97051DA  25340.69776367  .00069464  00000+0  87798-2 0  9993",
        "tle_line2": "2 34091  86.3424  69.6006 0033113 314.9331  44.9204 14.81124325877778"
      },
      "geometry": {
        "type": "Point",
        "coordinates": [
          -109.74023423678534,
          -15.49128363251837
        ]
      }
    },
    {
      "type": "Feature",
      "properties": {
        "norad_id": 34097,
        "name": "IRIDIUM 33 DEB",
        "group": "iridium-33-debris",
        "lat": -67.48065919593867,
        "lon": -167.04480524864545,
        "alt_km": 822.5908947154339,
        "timestamp": "2025-12-07T11:27:50.391283+00:00",
        "meta_object_name": "IRIDIUM 33 DEB",
        "meta_object_id": "1997-051DG",
        "meta_epoch": "2025-12-06T12:33:02.637216",
        "meta_mean_motion": 14.34704605,
        "meta_eccentricity": 0.00832985,
        "meta_inclination": 86.1999,
        "meta_ra_of_asc_node": 4.1517,
        "meta_arg_of_pericenter": 22.3906,
        "meta_mean_anomaly": 338.0891,
        "meta_ephemeris_type": 0,
        "meta_classification_type": "U",
        "meta_norad_cat_id": 34097,
        "meta_element_set_no": 999,
        "meta_rev_at_epoch": 87030,
        "meta_bstar": 0.002279274,
        "meta_mean_motion_dot": 6.729e-05,
        "meta_mean_motion_ddot": 0,
        "tle_line1": "1 34097U 97051DG  25340.52294719  .00006729  00000+0  22793-2 0  9996",
        "tle_line2": "2 34097  86.1999   4.1517 0083298  22.3906 338.0891 14.34704605870301"
      },
      "geometry": {
        "type": "Point",
        "coordinates": [
          -167.04480524864545,
          -67.48065919593867
        ]
      }
    },
    {
      "type": "Feature",
      "properties": {
        "norad_id": 34145,
        "name": "IRIDIUM 33 DEB",
        "group": "iridium-33-debris",
        "lat": 14.795988597217953,
        "lon": -24.12710836428364,
        "alt_km": 755.6707812715995,
        "timestamp": "2025-12-07T11:27:50.391294+00:00",
        "meta_object_name": "IRIDIUM 33 DEB",
        "meta_object_id": "1997-051DY",
        "meta_epoch": "2025-12-06T17:04:42.938112",
        "meta_mean_motion": 14.42224915,
        "meta_eccentricity": 0.00555052,
        "meta_inclination": 86.211,
        "meta_ra_of_asc_node": 335.211,
        "meta_arg_of_pericenter": 112.9969,
        "meta_mean_anomaly": 247.71,
        "meta_ephemeris_type": 0,
        "meta_classification_type": "U",
        "meta_norad_cat_id": 34145,
        "meta_element_set_no": 999,
        "meta_rev_at_epoch": 87551,
        "meta_bstar": 0.0017839486,
        "meta_mean_motion_dot": 6.008e-05,
        "meta_mean_motion_ddot": 0,
        "tle_line1": "1 34145U 97051DY  25340.71160808  .00006008  00000+0  17839-2 0  9997",
        "tle_line2": "2 34145  86.2110 335.2110 0055505 112.9969 247.7100 14.42224915875510"
      },
      "geometry": {
        "type": "Point",
        "coordinates": [
          -24.12710836428364,
          14.795988597217953
        ]
      }
    },
    {
      "type": "Feature",
      "properties": {
        "norad_id": 34146,
        "name": "IRIDIUM 33 DEB",
        "group": "iridium-33-debris",
        "lat": -65.17741323979169,
        "lon": -179.79591586014365,
        "alt_km": 718.486203334016,
        "timestamp": "2025-12-07T11:27:50.391305+00:00",
        "meta_object_name": "IRIDIUM 33 DEB",
        "meta_object_id": "1997-051DZ",
        "meta_epoch": "2025-12-06T11:50:11.529600",
        "meta_mean_motion": 14.4898423,
        "meta_eccentricity": 0.00250615,
        "meta_inclination": 86.2832,
        "meta_ra_of_asc_node": 352.5599,
        "meta_arg_of_pericenter": 243.9958,
        "meta_mean_anomaly": 269.256,
        "meta_ephemeris_type": 0,
        "meta_classification_type": "U",
        "meta_norad_cat_id": 34146,
        "meta_element_set_no": 999,
        "meta_rev_at_epoch": 88016,
        "meta_bstar": 0.0017576826,
        "meta_mean_motion_dot": 6.708e-05,
        "meta_mean_motion_ddot": 0,
        "tle_line1": "1 34146U 97051DZ  25340.49318900  .00006708  00000+0  17577-2 0  9997",
        "tle_line2": "2 34146  86.2832 352.5599 0025061 243.9958 269.2560 14.48984230880167"
      },
      "geometry": {
        "type": "Point",
        "coordinates": [
          -179.79591586014365,
          -65.17741323979169
        ]
      }
    },
    {
      "type": "Feature",
      "properties": {
        "norad_id": 34159,
        "name": "IRIDIUM 33 DEB",
        "group": "iridium-33-debris",
        "lat": 20.504372177272543,
        "lon": -130.88173035333028,
        "alt_km": 779.2968651093006,
        "timestamp": "2025-12-07T11:27:50.391316+00:00",
        "meta_object_name": "IRIDIUM 33 DEB",
        "meta_object_id": "1997-051EN",
        "meta_epoch": "2025-12-06T16:21:33.570720",
        "meta_mean_motion": 14.38471316,
        "meta_eccentricity": 0.00261741,
        "meta_inclination": 86.3519,
        "meta_ra_of_asc_node": 50.8246,
        "meta_arg_of_pericenter": 309.1384,
        "meta_mean_anomaly": 50.7488,
        "meta_ephemeris_type": 0,
        "meta_classification_type": "U",
        "meta_norad_cat_id": 34159,
        "meta_element_set_no": 999,
        "meta_rev_at_epoch": 87872,
        "meta_bstar": 0.00079175056,
        "meta_mean_motion_dot": 2.445e-05,
        "meta_mean_motion_ddot": 0,
        "tle_line1": "1 34159U 97051EN  25340.68163855  .00002445  00000+0  79175-3 0  9996",
        "tle_line2": "2 34159  86.3519  50.8246 0026174 309.1384  50.7488 14.38471316878721"
      },
      "geometry": {
        "type": "Point",
        "coordinates": [
          -130.88173035333028,
          20.504372177272543
        ]
      }
    }
  ]
}